[{"OBJECT_NAME":"STARLINK-35355","OBJECT_ID":"2025-259AC","EPOCH":"2026-03-09T22:16:21.471456","MEAN_MOTION":15.27610332,"ECCENTRICITY":0.00015727,"INCLINATION":43.0007,"RA_OF_ASC_NODE":273.3462,"ARG_OF_PERICENTER":281.8072,"MEAN_ANOMALY":78.2603,"EPHEMERIS_TYPE":0,"CLASSIFICATION_TYPE":"U","NORAD_CAT_ID":66448,"ELEMENT_SET_NO":999,"REV_AT_EPOCH":1952,"BSTAR":0.0010805203,"MEAN_MOTION_DOT":0.00029619,"MEAN_MOTION_DDOT":0},{"OBJECT_NAME":"CZ-6A DEB","OBJECT_ID":"2022-151ADD","EPOCH":"2026-03-09T18:20:47.462208","MEAN_MOTION":15.20298953,"ECCENTRICITY":0.00285544,"INCLINATION":98.6309,"RA_OF_ASC_NODE":152.6578,"ARG_OF_PERICENTER":173.2603,"MEAN_ANOMALY":186.9019,"EPHEMERIS_TYPE":0,"CLASSIFICATION_TYPE":"U","NORAD_CAT_ID":56285,"ELEMENT_SET_NO":999,"REV_AT_EPOCH":17182,"BSTAR":0.0066325049,"MEAN_MOTION_DOT":0.00148374,"MEAN_MOTION_DDOT":0}]
